STARLINK-35420          
1 66260U 25245AC  25324.75002315  .00128070  00000+0  22827-2 0  9997
2 66260  53.1607  73.3259 0000641  82.9312 116.9954 15.49190482  4573
STARLINK-35536          
1 66261U 25245AD  25324.75002315  .00116526  00000+0  20784-2 0  9991
2 66261  53.1609  73.3180 0001402  64.5299 139.2335 15.49221704  4578
STARLINK-35487          
1 66262U 25245AE  25324.75002315  .00115621  00000+0  20625-2 0  9991
2 66262  53.1609  73.3137 0001405  64.4407 141.2388 15.49222499  4522
STARLINK-35801          
1 66265U 25247A   25324.75002315 -.02099317  00000+0 -45656-1 0  9993
2 66265  53.1595 341.3062 0001214  92.5592 147.3959 15.47284229  4088
STARLINK-35056          
1 66266U 25247B   25324.75002315 -.02097522  00000+0 -45621-1 0  9992
2 66266  53.1595 341.3027 0001303  80.7208 161.1374 15.47277646  4352
STARLINK-35550          
1 66267U 25247C   25324.75002315 -.01929840  00000+0 -34633-1 0  9990
2 66267  53.1593 340.1685 0001363  75.4936 358.2141 15.52386467  4037
STARLINK-35069          
1 66268U 25247D   25324.75002315 -.02040124  00000+0 -40760-1 0  9999
2 66268  53.1594 341.2874 0001378 106.8886 142.3949 15.49583261  4305
STARLINK-34910          
1 66269U 25247E   25324.75002315 -.01873584  00000+0 -34191-1 0  9994
2 66269  53.1592 340.1719 0001195  81.9066 349.8882 15.52376109  4350
STARLINK-35757          
1 66270U 25247F   25324.75002315 -.02049653  00000+0 -40972-1 0  9993
2 66270  53.1594 341.2838 0001164  94.9659 156.2270 15.49586726  4407
STARLINK-35745          
1 66271U 25247G   25324.75002315 -.00050546  00000+0 -90583-3 0  9990
2 66271  53.1592 341.2800 0001278  80.7664 172.3675 15.49333657  4401
STARLINK-35741          
1 66272U 25247H   25324.75002315 -.00063294  00000+0 -11379-2 0  9990
2 66272  53.1593 341.2753 0001207  84.9068 170.1427 15.49341593  4405
STARLINK-35730          
1 66273U 25247J   25324.75002315  .00020047  00000+0  36798-3 0  9991
2 66273  53.1593 341.2714 0001263  81.1592 175.8362 15.49276988  4401
