CCSDS_OMM_VERS = 2.0
CREATION_DATE  = 
ORIGINATOR     = 

OBJECT_NAME    = STARLINK-35420
OBJECT_ID      = 2025-245AC
CENTER_NAME    = EARTH
REF_FRAME      = TEME
TIME_SYSTEM    = UTC
MEAN_ELEMENT_THEORY = SGP/SGP4

EPOCH          = 2025-11-20T18:00:02.000160
MEAN_MOTION    = 15.49190482
ECCENTRICITY   = .0000641
INCLINATION    = 53.1607
RA_OF_ASC_NODE = 73.3259
ARG_OF_PERICENTER = 82.9312
MEAN_ANOMALY   = 116.9954

EPHEMERIS_TYPE = 0
CLASSIFICATION_TYPE = U
NORAD_CAT_ID   = 66260
ELEMENT_SET_NO = 999
REV_AT_EPOCH   = 457
BSTAR          = .22827E-2
MEAN_MOTION_DOT = .12807E-2
MEAN_MOTION_DDOT = 0

CCSDS_OMM_VERS = 2.0
CREATION_DATE  = 
ORIGINATOR     = 

OBJECT_NAME    = STARLINK-35536
OBJECT_ID      = 2025-245AD
CENTER_NAME    = EARTH
REF_FRAME      = TEME
TIME_SYSTEM    = UTC
MEAN_ELEMENT_THEORY = SGP/SGP4

EPOCH          = 2025-11-20T18:00:02.000160
MEAN_MOTION    = 15.49221704
ECCENTRICITY   = .0001402
INCLINATION    = 53.1609
RA_OF_ASC_NODE = 73.3180
ARG_OF_PERICENTER = 64.5299
MEAN_ANOMALY   = 139.2335

EPHEMERIS_TYPE = 0
CLASSIFICATION_TYPE = U
NORAD_CAT_ID   = 66261
ELEMENT_SET_NO = 999
REV_AT_EPOCH   = 457
BSTAR          = .20784E-2
MEAN_MOTION_DOT = .116526E-2
MEAN_MOTION_DDOT = 0

CCSDS_OMM_VERS = 2.0
CREATION_DATE  = 
ORIGINATOR     = 

OBJECT_NAME    = STARLINK-35487
OBJECT_ID      = 2025-245AE
CENTER_NAME    = EARTH
REF_FRAME      = TEME
TIME_SYSTEM    = UTC
MEAN_ELEMENT_THEORY = SGP/SGP4

EPOCH          = 2025-11-20T18:00:02.000160
MEAN_MOTION    = 15.49222499
ECCENTRICITY   = .0001405
INCLINATION    = 53.1609
RA_OF_ASC_NODE = 73.3137
ARG_OF_PERICENTER = 64.4407
MEAN_ANOMALY   = 141.2388

EPHEMERIS_TYPE = 0
CLASSIFICATION_TYPE = U
NORAD_CAT_ID   = 66262
ELEMENT_SET_NO = 999
REV_AT_EPOCH   = 452
BSTAR          = .20625E-2
MEAN_MOTION_DOT = .115621E-2
MEAN_MOTION_DDOT = 0

CCSDS_OMM_VERS = 2.0
CREATION_DATE  = 
ORIGINATOR     = 

OBJECT_NAME    = STARLINK-35801
OBJECT_ID      = 2025-247A
CENTER_NAME    = EARTH
REF_FRAME      = TEME
TIME_SYSTEM    = UTC
MEAN_ELEMENT_THEORY = SGP/SGP4

EPOCH          = 2025-11-20T18:00:02.000160
MEAN_MOTION    = 15.47284229
ECCENTRICITY   = .0001214
INCLINATION    = 53.1595
RA_OF_ASC_NODE = 341.3062
ARG_OF_PERICENTER = 92.5592
MEAN_ANOMALY   = 147.3959

EPHEMERIS_TYPE = 0
CLASSIFICATION_TYPE = U
NORAD_CAT_ID   = 66265
ELEMENT_SET_NO = 999
REV_AT_EPOCH   = 408
BSTAR          = -.45656E-1
MEAN_MOTION_DOT = -.2099317E-1
MEAN_MOTION_DDOT = 0

CCSDS_OMM_VERS = 2.0
CREATION_DATE  = 
ORIGINATOR     = 

OBJECT_NAME    = STARLINK-35056
OBJECT_ID      = 2025-247B
CENTER_NAME    = EARTH
REF_FRAME      = TEME
TIME_SYSTEM    = UTC
MEAN_ELEMENT_THEORY = SGP/SGP4

EPOCH          = 2025-11-20T18:00:02.000160
MEAN_MOTION    = 15.47277646
ECCENTRICITY   = .0001303
INCLINATION    = 53.1595
RA_OF_ASC_NODE = 341.3027
ARG_OF_PERICENTER = 80.7208
MEAN_ANOMALY   = 161.1374

EPHEMERIS_TYPE = 0
CLASSIFICATION_TYPE = U
NORAD_CAT_ID   = 66266
ELEMENT_SET_NO = 999
REV_AT_EPOCH   = 435
BSTAR          = -.45621E-1
MEAN_MOTION_DOT = -.2097522E-1
MEAN_MOTION_DDOT = 0

CCSDS_OMM_VERS = 2.0
CREATION_DATE  = 
ORIGINATOR     = 

OBJECT_NAME    = STARLINK-35550
OBJECT_ID      = 2025-247C
CENTER_NAME    = EARTH
REF_FRAME      = TEME
TIME_SYSTEM    = UTC
MEAN_ELEMENT_THEORY = SGP/SGP4

EPOCH          = 2025-11-20T18:00:02.000160
MEAN_MOTION    = 15.52386467
ECCENTRICITY   = .0001363
INCLINATION    = 53.1593
RA_OF_ASC_NODE = 340.1685
ARG_OF_PERICENTER = 75.4936
MEAN_ANOMALY   = 358.2141

EPHEMERIS_TYPE = 0
CLASSIFICATION_TYPE = U
NORAD_CAT_ID   = 66267
ELEMENT_SET_NO = 999
REV_AT_EPOCH   = 403
BSTAR          = -.34633E-1
MEAN_MOTION_DOT = -.192984E-1
MEAN_MOTION_DDOT = 0

CCSDS_OMM_VERS = 2.0
CREATION_DATE  = 
ORIGINATOR     = 

OBJECT_NAME    = STARLINK-35069
OBJECT_ID      = 2025-247D
CENTER_NAME    = EARTH
REF_FRAME      = TEME
TIME_SYSTEM    = UTC
MEAN_ELEMENT_THEORY = SGP/SGP4

EPOCH          = 2025-11-20T18:00:02.000160
MEAN_MOTION    = 15.49583261
ECCENTRICITY   = .0001378
INCLINATION    = 53.1594
RA_OF_ASC_NODE = 341.2874
ARG_OF_PERICENTER = 106.8886
MEAN_ANOMALY   = 142.3949

EPHEMERIS_TYPE = 0
CLASSIFICATION_TYPE = U
NORAD_CAT_ID   = 66268
ELEMENT_SET_NO = 999
REV_AT_EPOCH   = 430
BSTAR          = -.4076E-1
MEAN_MOTION_DOT = -.2040124E-1
MEAN_MOTION_DDOT = 0

CCSDS_OMM_VERS = 2.0
CREATION_DATE  = 
ORIGINATOR     = 

OBJECT_NAME    = STARLINK-34910
OBJECT_ID      = 2025-247E
CENTER_NAME    = EARTH
REF_FRAME      = TEME
TIME_SYSTEM    = UTC
MEAN_ELEMENT_THEORY = SGP/SGP4

EPOCH          = 2025-11-20T18:00:02.000160
MEAN_MOTION    = 15.52376109
ECCENTRICITY   = .0001195
INCLINATION    = 53.1592
RA_OF_ASC_NODE = 340.1719
ARG_OF_PERICENTER = 81.9066
MEAN_ANOMALY   = 349.8882

EPHEMERIS_TYPE = 0
CLASSIFICATION_TYPE = U
NORAD_CAT_ID   = 66269
ELEMENT_SET_NO = 999
REV_AT_EPOCH   = 435
BSTAR          = -.34191E-1
MEAN_MOTION_DOT = -.1873584E-1
MEAN_MOTION_DDOT = 0

CCSDS_OMM_VERS = 2.0
CREATION_DATE  = 
ORIGINATOR     = 

OBJECT_NAME    = STARLINK-35757
OBJECT_ID      = 2025-247F
CENTER_NAME    = EARTH
REF_FRAME      = TEME
TIME_SYSTEM    = UTC
MEAN_ELEMENT_THEORY = SGP/SGP4

EPOCH          = 2025-11-20T18:00:02.000160
MEAN_MOTION    = 15.49586726
ECCENTRICITY   = .0001164
INCLINATION    = 53.1594
RA_OF_ASC_NODE = 341.2838
ARG_OF_PERICENTER = 94.9659
MEAN_ANOMALY   = 156.2270

EPHEMERIS_TYPE = 0
CLASSIFICATION_TYPE = U
NORAD_CAT_ID   = 66270
ELEMENT_SET_NO = 999
REV_AT_EPOCH   = 440
BSTAR          = -.40972E-1
MEAN_MOTION_DOT = -.2049653E-1
MEAN_MOTION_DDOT = 0

CCSDS_OMM_VERS = 2.0
CREATION_DATE  = 
ORIGINATOR     = 

OBJECT_NAME    = STARLINK-35745
OBJECT_ID      = 2025-247G
CENTER_NAME    = EARTH
REF_FRAME      = TEME
TIME_SYSTEM    = UTC
MEAN_ELEMENT_THEORY = SGP/SGP4

EPOCH          = 2025-11-20T18:00:02.000160
MEAN_MOTION    = 15.49333657
ECCENTRICITY   = .0001278
INCLINATION    = 53.1592
RA_OF_ASC_NODE = 341.2800
ARG_OF_PERICENTER = 80.7664
MEAN_ANOMALY   = 172.3675

EPHEMERIS_TYPE = 0
CLASSIFICATION_TYPE = U
NORAD_CAT_ID   = 66271
ELEMENT_SET_NO = 999
REV_AT_EPOCH   = 440
BSTAR          = -.90583E-3
MEAN_MOTION_DOT = -.50546E-3
MEAN_MOTION_DDOT = 0

CCSDS_OMM_VERS = 2.0
CREATION_DATE  = 
ORIGINATOR     = 

OBJECT_NAME    = STARLINK-35741
OBJECT_ID      = 2025-247H
CENTER_NAME    = EARTH
REF_FRAME      = TEME
TIME_SYSTEM    = UTC
MEAN_ELEMENT_THEORY = SGP/SGP4

EPOCH          = 2025-11-20T18:00:02.000160
MEAN_MOTION    = 15.49341593
ECCENTRICITY   = .0001207
INCLINATION    = 53.1593
RA_OF_ASC_NODE = 341.2753
ARG_OF_PERICENTER = 84.9068
MEAN_ANOMALY   = 170.1427

EPHEMERIS_TYPE = 0
CLASSIFICATION_TYPE = U
NORAD_CAT_ID   = 66272
ELEMENT_SET_NO = 999
REV_AT_EPOCH   = 440
BSTAR          = -.11379E-2
MEAN_MOTION_DOT = -.63294E-3
MEAN_MOTION_DDOT = 0

CCSDS_OMM_VERS = 2.0
CREATION_DATE  = 
ORIGINATOR     = 

OBJECT_NAME    = STARLINK-35730
OBJECT_ID      = 2025-247J
CENTER_NAME    = EARTH
REF_FRAME      = TEME
TIME_SYSTEM    = UTC
MEAN_ELEMENT_THEORY = SGP/SGP4

EPOCH          = 2025-11-20T18:00:02.000160
MEAN_MOTION    = 15.49276988
ECCENTRICITY   = .0001263
INCLINATION    = 53.1593
RA_OF_ASC_NODE = 341.2714
ARG_OF_PERICENTER = 81.1592
MEAN_ANOMALY   = 175.8362

EPHEMERIS_TYPE = 0
CLASSIFICATION_TYPE = U
NORAD_CAT_ID   = 66273
ELEMENT_SET_NO = 999
REV_AT_EPOCH   = 440
BSTAR          = .36798E-3
MEAN_MOTION_DOT = .20047E-3
MEAN_MOTION_DDOT = 0

